TOMORROW-S1             
1 60479U 24149M   26068.72470524  .00008620  00000+0  28856-3 0  9996
2 60479  97.3791 149.6044 0001819 207.2040 152.9106 15.31198362 86867
STARLINK-35193          
1 65889U 25224H   26068.05691270  .00024822  00000+0  84703-3 0  9995
2 65889  53.1611  14.5512 0001214 120.2525 239.8597 15.30213872 24751
